01067   10.99  0.15 K1794 222.90033  115.03188  289.58946   10.54740  0.1915622  0.20264431   2.8706469  0 MPO410087  1390  31 1926-2017 0.43 M-v 38h MPCLINUX   0000   (1067) Lunaria            20170605
01068   10.7   0.15 K1794 250.26090  267.46905  318.69226    5.48402  0.0962131  0.19884092   2.9071372  0 MPO405849  2065  41 1926-2017 0.45 M-v 38h MPCLINUX   0000   (1068) Nofretete          20170329
01069    9.4   0.15 K1794  76.39377   31.79436  142.38416   13.56252  0.1105325  0.17828417   3.1265175  0 MPO410087  2016  37 1927-2017 0.46 M-v 38h MPCLINUX   0000   (1069) Planckia           20170606
01070   10.7   0.15 K1794 259.51256  189.81039  165.32046   16.96286  0.0791618  0.16960450   3.2322960  0 MPO410087  1663  29 1903-2017 0.45 M-v 38h MPCLINUX   0000   (1070) Tunica             20170606
01071   10.4   0.15 K1794  60.27557   27.13664   52.57056    5.37153  0.1090835  0.21025608   2.8009392  0 MPO405849  1696  41 1931-2017 0.48 M-v 38h MPCLINUX   0000   (1071) Brita              20170425
01072   10.8   0.15 K1794 355.23285   25.99605   37.07652    8.02342  0.2413914  0.17503885   3.1650440  0 MPO405849  1334  35 1926-2017 0.45 M-v 38h MPCLINUX   0000   (1072) Malva              20170116
01073   11.7   0.15 K1794 248.00793  289.05244   39.57870    1.60436  0.1897899  0.17318905   3.1875409  0 MPO410087  2092  36 1923-2017 0.48 M-v 38h MPCLINUX   0000   (1073) Gellivara          20170527
01074   10.2   0.15 K1794 231.34832   22.87029   38.12289    0.80050  0.1790994  0.17630501   3.1498723  0 MPO410087  2062  45 1923-2017 0.49 M-v 38h MPCLINUX   0000   (1074) Beljawskya         20170603
01075   10.15  0.15 K1794 156.59014  250.60997  100.81102   11.52274  0.1132846  0.18858105   3.0116466  0 MPO410087  1928  34 1926-2017 0.42 M-v 38h MPCLINUX   0000   (1075) Helina             20170521
01076   12.30  0.15 K1794  70.60792  304.08117  143.70634    3.31951  0.1446522  0.25322640   2.4743629  0 MPO410087  1745  39 1951-2017 0.47 M-v 38h MPCLINUX   0000   (1076) Viola              20170521
01077   12.3   0.15 K1794 218.35884   13.59105  346.19565    5.39407  0.1970675  0.26612249   2.3937659  0 MPO410087  1791  29 1926-2017 0.45 M-v 38h MPCLINUX   0000   (1077) Campanula          20170528
01078   11.80  0.15 K1794 142.04460   43.56750   93.85056    7.37164  0.1382990  0.28830566   2.2693454  0 MPO410087  1421  28 1924-2017 0.45 M-v 38h MPCLINUX   0000   (1078) Mentha             20170603
01079   11.1   0.15 K1794 253.25259  106.34923  329.36701    1.17641  0.0486463  0.20240295   2.8729286  0 MPO410087  2204  40 1927-2017 0.47 M-v 38h MPCLINUX   0000   (1079) Mimosa             20170602
01080   12.20  0.15 K1794 278.53591   57.02825    2.04382    4.58732  0.2589618  0.26199773   2.4188246  0 MPO410087  1802  28 1927-2017 0.46 M-v 38h MPCLINUX   0000   (1080) Orchis             20170605
01081   11.1   0.15 K1794 167.24585    7.52045   30.44354    4.20293  0.1460048  0.18026252   3.1036001  0 MPO410087  2202  36 1927-2017 0.45 M-v 38h MPCLINUX   0000   (1081) Reseda             20170606
01082   10.41  0.15 K1794 130.73773  187.22854  148.00971    1.85240  0.1811304  0.17879656   3.1205414  0 MPO405849  2498  46 1927-2017 0.45 M-v 38h MPCLINUX   0000   (1082) Pirola             20170425
01083   12.1   0.15 K1794  91.45008   32.66470   80.81243    5.13114  0.1827248  0.27725976   2.3292253  0 MPO410087  1665  33 1928-2017 0.44 M-v 38h MPCLINUX   0000   (1083) Salvia             20170606
01084   10.78  0.15 K1794 122.38679  109.87779  186.88100    3.89528  0.1323364  0.22358643   2.6884735  0 MPO400003  1860  41 1927-2017 0.48 M-v 38h MPCLINUX   0000   (1084) Tamariwa           20170127
01085    9.8   0.15 K1794  40.30870  127.53206  139.98484    6.63959  0.0420181  0.17344550   3.1843981  0 MPO410087  1995  46 1908-2017 0.49 M-v 38h MPCLINUX   0000   (1085) Amaryllis          20170603
01086    9.5   0.15 K1794 236.41032  158.77979  313.24223    8.35871  0.0544168  0.17522525   3.1627990  0 MPO410087  1450  42 1900-2017 0.49 M-v 38h MPCLINUX   0000   (1086) Nata               20170602
01087    9.73  0.15 K1794  12.95869   25.79269   30.42497   10.06086  0.0942933  0.18834026   3.0142130  0 MPO400003  1558  36 1927-2017 0.46 M-v 38h MPCLINUX   0000   (1087) Arabis             20170127
01088   11.39  0.15 K1794 200.92468  319.49597   54.49537    7.65140  0.1953878  0.30152963   2.2025007  0 MPO410087  1779  36 1927-2017 0.42 M-v 38h MPCLINUX   0000   (1088) Mitaka             20170604
01089   11.8   0.15 K1794  82.84274  354.29050   71.48912    3.72642  0.1270107  0.29920612   2.2138884  0 MPO410087  1938  35 1904-2017 0.43 M-v 38h MPCLINUX   0000   (1089) Tama               20170508
01090   12.49  0.15 K1794 271.54529  337.68381  148.04425   21.50542  0.2194998  0.27182572   2.3601649  0 MPO395000  1307  27 1928-2016 0.46 M-v 38h MPCLINUX   0007   (1090) Sumida             20161124
01091   10.8   0.15 K1794 110.36810   12.06275   80.78961    1.15538  0.0642739  0.15528587   3.4280574  0 MPO410087  2363  30 1934-2017 0.44 M-v 38h MPCLINUX   0000   (1091) Spiraea            20170606
01092   10.82  0.15 K1794 200.61901  316.51308  307.48989    5.38851  0.0843418  0.19959598   2.8998010  0 MPO405849  2176  40 1906-2017 0.44 M-v 38h MPCLINUX   0000   (1092) Lilium             20170329
01093    8.83  0.15 K1794 175.71613  251.42131   55.63460   25.21492  0.2711166  0.17805033   3.1292543  0 MPO410087  1846  32 1929-2017 0.42 M-v 38h MPCLINUX   0000   (1093) Freda              20170521
01094   11.7   0.15 K1794 221.13198  310.28692  149.13944   14.02764  0.1335358  0.24281674   2.5445850  0 MPO410087  1632  32 1935-2017 0.43 M-v 38h MPCLINUX   0000   (1094) Siberia            20170525
01095   10.42  0.15 K1794 181.75523  342.69111  178.53862   10.02960  0.0220929  0.18733646   3.0249707  0 MPO410087  1929  33 1941-2017 0.45 M-v 38h MPCLINUX   0000   (1095) Tulipa             20170602
01096   10.7   0.15 K1794  65.06629  248.00101   81.34610    9.47130  0.1939210  0.23494702   2.6010942  0 MPO395000  1479  36 1928-2016 0.46 M-v 38h MPCLINUX   0000   (1096) Reunerta           20161226
01097   12.0   0.15 K1794 274.04739  176.51338  133.85787    1.53317  0.2928852  0.22923314   2.6441400  0 MPO410087  2433  41 1928-2017 0.48 M-v 38h MPCLINUX   0000   (1097) Vicia              20170528
01098   10.5   0.15 K1794  13.74137   80.80507  329.00344   13.37748  0.1189427  0.22359734   2.6883860  0 MPO395000  1636  36 1906-2016 0.43 M-v 38h MPCLINUX   0000   (1098) Hakone             20161221
01099   10.3   0.15 K1794 260.48003  347.75970   22.24675   11.83904  0.2775475  0.17381525   3.1798805  0 MPO410087  1593  35 1928-2017 0.46 M-v 38h MPCLINUX   0000   (1099) Figneria           20170602
01100   10.9   0.15 K1794  47.14254   24.24025  304.11928    1.03417  0.0689004  0.19969849   2.8988085  0 MPO410087  1729  47 1918-2017 0.49 M-v 38h MPCLINUX   0000   (1100) Arnica             20170529
01101   10.6   0.15 K1794 151.10688  107.53660  201.98193   21.42419  0.0783736  0.16977244   3.2301641  0 MPO405850  1617  28 1963-2017 0.45 M-v 38h MPCLINUX   0000   (1101) Clematis           20170324
01102    9.40  0.15 K1794 267.79882  116.54733  216.58609   15.82779  0.1108157  0.18309470   3.0715119  0 MPO410087  1710  40 1928-2017 0.42 M-v 38h MPCLINUX   0000   (1102) Pepita             20170606
01103   12.25  0.15 K1794  66.94343   77.90946  267.64721   17.89857  0.0947528  0.36654477   1.9336804  0 MPO389586  1261  25 1928-2016 0.40 M-v 38h MPCLINUX   0006   (1103) Sequoia            20161009
01104   12.3   0.15 K1794 305.65512  277.49592  128.65704    6.44151  0.3437783  0.23114007   2.6295770  0 MPO410087  1589  23 1929-2017 0.47 M-v 38h MPCLINUX   0000   (1104) Syringa            20170529
01105   10.09  0.15 K1794  72.77289  225.10465  116.90780   10.96679  0.1057909  0.18867216   3.0106771  0 MPO400004  1704  35 1928-2017 0.45 M-v 38h MPCLINUX   0000   (1105) Fragaria           20170127
01106   11.7   0.15 K1794  24.26932  230.32936  328.27626   13.06440  0.1267558  0.23553546   2.5967602  0 MPO410087  1571  29 1929-2017 0.45 M-v 38h MPCLINUX   0000   (1106) Cydonia            20170530
01107    9.6   0.15 K1794 277.72767  351.37587  110.84781    7.07341  0.1245019  0.17342976   3.1845908  0 MPO410087  1931  47 1909-2017 0.43 M-v 38h MPCLINUX   0000   (1107) Lictoria           20170513
01108   11.91  0.15 K1794  87.44197   78.13217  234.25325   24.91543  0.2567138  0.26054467   2.4278094  0 MPO395000  1280  26 1930-2016 0.41 M-v 38h MPCLINUX   0000   (1108) Demeter            20161124
01109   10.06  0.15 K1794  63.02846  359.28841  268.09266    4.11994  0.0984625  0.17011446   3.2258331  0 MPO410087  1779  44 1929-2017 0.48 M-v 38h MPCLINUX   0000   (1109) Tata               20170604
01110   11.5   0.15 K1794 346.10034   78.59104  241.74717    5.85580  0.2409090  0.29831095   2.2183152  0 MPO410087  2046  34 1928-2017 0.43 M-v 38h MPCLINUX   0000   (1110) Jaroslawa          20170606
01111   10.67  0.15 K1794 329.11753  236.17360  132.44101    3.89168  0.1008314  0.19035463   2.9929106  0 MPO410087  1769  48 1927-2017 0.51 M-v 38h MPCLINUX   0000   (1111) Reinmuthia         20170602
01112   10.05  0.15 K1794 289.05642   87.42799  302.86442    8.99191  0.1068883  0.18791092   3.0188025  0 MPO410087  1587  40 1928-2017 0.46 M-v 38h MPCLINUX   0000   (1112) Polonia            20170604
01113    9.3   0.15 K1794 341.94969  119.15325  324.54021   13.28044  0.1422295  0.17960651   3.1111528  0 MPO405850  1348  40 1928-2017 0.48 M-v 38h MPCLINUX   0000   (1113) Katja              20170203
01114   10.1   0.15 K1794 138.45374  203.80034  195.51703   10.74382  0.0718606  0.18095814   3.0956413  0 MPO410087  1911  39 1928-2017 0.45 M-v 38h MPCLINUX   0000   (1114) Lorraine           20170605
01115    9.7   0.15 K1794  58.44915   57.29185   71.67858   15.27056  0.1704563  0.18021533   3.1041419  0 MPO410087  1569  35 1929-2017 0.40 M-v 38h MPCLINUX   0000   (1115) Sabauda            20170605
